BEIDOU 3 (C01)          
1 36287U 10001A   22079.55323008 -.00000279  00000+0  00000+0 0  9991
2 36287   1.9255  48.4097 0002873   7.7819 101.4633  1.00272723 44622
BEIDOU 5 (C06)          
1 36828U 10036A   22078.61393193 -.00000132  00000+0  00000+0 0  9996
2 36828  54.1920 177.0529 0027623 183.4146 146.3653  1.00272222 42673
BEIDOU 6 (C04)          
1 37210U 10057A   22078.91122716 -.00000112  00000+0  00000+0 0  9997
2 37210   1.0091  55.6783 0003402 146.5933 103.2056  1.00271376 41739
BEIDOU 7 (C07)          
1 37256U 10068A   22079.32985669 -.00000176  00000+0  00000+0 0  9999
2 37256  50.3697 290.7105 0017943 182.7889 291.7505  1.00278035 41253
BEIDOU 8 (C08)          
1 37384U 11013A   22079.59809369 -.00000165  00000+0  00000+0 0  9991
2 37384  60.1680  55.1371 0019160 195.7717 251.2921  1.00279448 40139
BEIDOU 9 (C09)          
1 37763U 11038A   22078.68626988 -.00000069  00000+0  00000+0 0  9995
2 37763  54.4764 179.5340 0090807 226.0687 110.6979  1.00254073 39098
BEIDOU 10 (C10)         
1 37948U 11073A   22079.54433383 -.00000130  00000+0  00000+0 0  9999
2 37948  50.4841 290.3421 0076899 217.8753 321.7182  1.00272988 37863
BEIDOU 11 (C05)         
1 38091U 12008A   22078.95813149  .00000057  00000+0  00000+0 0  9991
2 38091   1.3705  64.8227 0014487 316.2010 200.0420  1.00277984 36932
BEIDOU 12 (C11)         
1 38250U 12018A   22078.19107043 -.00000075  00000+0  00000+0 0  9995
2 38250  56.7172 356.5413 0022624 257.9359 275.7004  1.86234369 67405
BEIDOU 13 (C12)         
1 38251U 12018B   22079.12570645 -.00000075  00000+0  00000+0 0  9992
2 38251  56.6354 355.8406 0013482 264.9136 219.6141  1.86234252 67426
BEIDOU 15 (C14)         
1 38775U 12050B   22078.76339205  .00000053  00000+0  00000+0 0  9998
2 38775  55.3468 114.7036 0014815 318.3187 119.9247  1.86231504 64794
BEIDOU 16 (C02)         
1 38953U 12059A   22078.90782752 -.00000175  00000+0  00000+0 0  9996
2 38953   1.7659  84.5497 0013272 289.0094 214.7535  1.00272663 34362
BEIDOU 17 (C31)         
1 40549U 15019A   22078.61124329 -.00000143  00000+0  00000+0 0  9992
2 40549  52.0382 313.7984 0035331 188.9802 349.0436  1.00261562 25537
BEIDOU 18 (C57)         
1 40748U 15037A   22078.75397088 -.00000076  00000+0  00000+0 0  9997
2 40748  55.8903 354.7739 0005525   2.3950 142.4599  1.86233300 45244
BEIDOU 19 (C58)         
1 40749U 15037B   22078.86856441 -.00000076  00000+0  00000+0 0  9993
2 40749  55.8936 354.7595 0006808 330.8379  25.7385  1.86232212 45236
BEIDOU 20 (C18)         
1 40938U 15053A   22078.51438154 -.00000105  00000+0  00000+0 0  9993
2 40938  51.6400 276.9015 0043720 192.6917 348.3941  1.00266439 23809
BEIDOU IGSO-6 (C13)     
1 41434U 16021A   22079.40016227 -.00000125  00000+0  00000+0 0  9995
2 41434  57.9700  53.7521 0043318 219.9847 141.5872  1.00259771 21944
BEIDOU-2 G7 (C03)       
1 41586U 16037A   22079.50465759 -.00000353  00000+0  00000+0 0  9992
2 41586   1.7787  68.3475 0008883 357.2300  44.5990  1.00276098 21249
BEIDOU-3 M1 (C19)       
1 43001U 17069A   22078.49772382  .00000054  00000+0  00000+0 0  9999
2 43001  55.5002 114.7012 0011501 286.9888 129.3246  1.86231638 29725
BEIDOU-3 M2 (C20)       
1 43002U 17069B   22078.34277495  .00000055  00000+0  00000+0 0  9990
2 43002  55.5000 114.7418 0009461 305.2880  50.2800  1.86231393 29707
BEIDOU-3 M3 (C27)       
1 43107U 18003A   22078.40224706 -.00000077  00000+0  00000+0 0  9994
2 43107  55.3394 355.7438 0005247  40.0016 161.4671  1.86232426 28471
BEIDOU-3 M4 (C28)       
1 43108U 18003B   22078.72821962 -.00000077  00000+0  00000+0 0  9997
2 43108  55.3330 355.7222 0003073 276.1073 188.3024  1.86230871 28486
BEIDOU-3 M5 (C21)       
1 43207U 18018A   22077.94457896  .00000057  00000+0  00000+0 0  9994
2 43207  55.4589 114.8374 0006822 321.6455  38.3946  1.86231624 27854
BEIDOU-3 M6 (C22)       
1 43208U 18018B   22078.54816181  .00000054  00000+0  00000+0 0  9995
2 43208  55.4590 114.8212 0009525 295.7976  64.1851  1.86231695 27861
BEIDOU-3 M7 (C29)       
1 43245U 18029A   22078.62261010 -.00000076  00000+0  00000+0 0  9997
2 43245  55.2577 353.5104 0001474 348.9736 270.5998  1.86232498 27011
BEIDOU-3 M8 (C30)       
1 43246U 18029B   22078.55633266 -.00000076  00000+0  10000-3 0  9991
2 43246  55.2543 353.5422 0005383 354.3047 267.2932  1.86232698 27009
BEIDOU IGSO-7 (C16)     
1 43539U 18057A   22078.74631201 -.00000132  00000+0  00000+0 0  9993
2 43539  55.0747 176.5003 0046010 224.0468 156.2631  1.00285257 13618
BEIDOU-3 M9 (C23)       
1 43581U 18062A   22078.82845275  .00000038  00000+0  00000+0 0  9997
2 43581  54.3048 235.1521 0001831 317.4732 337.3362  1.86231837 24750
BEIDOU-3 M10 (C24)      
1 43582U 18062B   22078.78415939  .00000038  00000+0  00000+0 0  9993
2 43582  54.3047 235.1426 0006277  24.1508 332.6708  1.86232105 24757
BEIDOU-3 M11 (C25)      
1 43602U 18067A   22078.61624212  .00000036  00000+0  00000+0 0  9997
2 43602  54.3860 233.7555 0007600  15.4187 270.3773  1.86231649 24243
BEIDOU-3 M12 (C26)      
1 43603U 18067B   22078.84574647  .00000038  00000+0  00000+0 0  9991
2 43603  54.3829 233.7149 0004628  10.8186 339.2429  1.86231596 24269
BEIDOU-3 M13 (C32)      
1 43622U 18072A   22078.27822728  .00000055  00000+0  00000+0 0  9990
2 43622  55.4256 114.3835 0008095 282.0159  77.0958  1.86231510 23761
BEIDOU-3 M14 (C33)      
1 43623U 18072B   22078.82041398  .00000052  00000+0  00000+0 0  9995
2 43623  55.4270 114.3579 0005856 301.0329 151.8226  1.86231509 23785
BEIDOU-3 M15 (C34)      
1 43647U 18078A   22079.22680986 -.00000076  00000+0  10000-3 0  9996
2 43647  55.1519 353.6570 0007757   0.2313 260.5423  1.86232975 23297
BEIDOU-3 M16 (C35)      
1 43648U 18078B   22078.98220781 -.00000076  00000+0  00000+0 0  9997
2 43648  55.1486 353.6709 0005634   7.2253 357.5074  1.86232210 23311
BEIDOU-3 G1 (C59)       
1 43683U 18085A   22078.83549262 -.00000278  00000+0  00000+0 0  9990
2 43683   0.8395 182.2052 0002257 324.9454 111.0248  1.00273586 12516
BEIDOU-3 M17 (C36)      
1 43706U 18093A   22078.59006167  .00000037  00000+0  00000+0 0  9992
2 43706  54.3877 235.0385 0007475 279.8356  80.0300  1.86231734 22645
BEIDOU-3 M18 (C37)      
1 43707U 18093B   22078.46744225  .00000036  00000+0  00000+0 0  9992
2 43707  54.3879 235.0332 0006573 315.1030  53.6875  1.86232278 22659
BEIDOU-3 IGSO-1 (C38)   
1 44204U 19023A   22078.84085031 -.00000193  00000+0  00000+0 0  9999
2 44204  56.4312  53.9305 0020389 205.8212 339.1893  1.00285431 10814
BEIDOU-2 G8             
1 44231U 19027A   22078.90808731 -.00000247  00000+0  00000+0 0  9990
2 44231   0.6504  71.1572 0004747 143.8996  73.8055  1.00270945 10520
BEIDOU-3 IGSO-2 (C39)   
1 44337U 19035A   22078.74698301 -.00000134  00000+0  00000+0 0  9993
2 44337  55.1131 172.5247 0022706 191.5448 201.0594  1.00280604 10155
BEIDOU-3 M23 (C45)      
1 44542U 19061A   22078.52555896  .00000037  00000+0  00000+0 0  9998
2 44542  54.6135 235.1649 0007850 351.3484   8.5881  1.86231162 16910
BEIDOU-3 M24 (C46)      
1 44543U 19061B   22078.65926086  .00000037  00000+0  00000+0 0  9996
2 44543  54.6111 235.1305 0005097 352.1625   8.5999  1.86231668 16912
BEIDOU-3 IGSO-3         
1 44709U 19073A   22078.51021318 -.00000146  00000+0  00000+0 0  9994
2 44709  57.4089 297.3150 0020468 172.1063  10.5022  1.00283614  8908
BEIDOU-3 M21            
1 44793U 19078A   22079.06994413 -.00000076  00000+0  10000-3 0  9995
2 44793  55.0004 353.6945 0007533   5.0730 104.5594  1.86232135 15781
BEIDOU-3 M22            
1 44794U 19078B   22078.65598681 -.00000076  00000+0  00000+0 0  9992
2 44794  54.9752 353.7012 0005418   0.2014 103.3891  1.86232682 15771
BEIDOU-3 M19            
1 44864U 19090A   22078.22448174  .00000055  00000+0  00000+0 0  9994
2 44864  55.3596 114.6015 0018268 268.7420 100.0531  1.86231807 15353
BEIDOU-3 M20            
1 44865U 19090B   22079.22945519  .00000049  00000+0  00000+0 0  9994
2 44865  55.3631 114.5987 0016516 281.6352 130.8335  1.86231802 15340
BEIDOU-3 G2             
1 45344U 20017A   22078.75882731 -.00000142  00000+0  00000+0 0  9996
2 45344   2.1335 347.6675 0002961  71.8493 110.9573  1.00271275  7710
BEIDOU-3 G3             
1 45807U 20040A   22079.04483561 -.00000355  00000+0  00000+0 0  9993
2 45807   1.6478 301.1735 0008052 346.2294  16.7732  1.00277018  6544
